[{"OBJECT_NAME":"JILIN-1 GAOFEN 03D48","OBJECT_ID":"2022-167P","EPOCH":"2026-03-09T23:48:37.804608","MEAN_MOTION":15.32947339,"ECCENTRICITY":0.00075954,"INCLINATION":97.6781,"RA_OF_ASC_NODE":234.4968,"ARG_OF_PERICENTER":111.3084,"MEAN_ANOMALY":248.8969,"EPHEMERIS_TYPE":0,"CLASSIFICATION_TYPE":"U","NORAD_CAT_ID":54695,"ELEMENT_SET_NO":999,"REV_AT_EPOCH":18018,"BSTAR":0.00049677114,"MEAN_MOTION_DOT":0.00015755,"MEAN_MOTION_DDOT":0},{"OBJECT_NAME":"STARLINK-33589","OBJECT_ID":"2025-015B","EPOCH":"2026-03-09T22:12:35.273664","MEAN_MOTION":15.30213238,"ECCENTRICITY":0.0001719,"INCLINATION":53.1574,"RA_OF_ASC_NODE":321.6212,"ARG_OF_PERICENTER":134.9541,"MEAN_ANOMALY":225.1599,"EPHEMERIS_TYPE":0,"CLASSIFICATION_TYPE":"U","NORAD_CAT_ID":62759,"ELEMENT_SET_NO":999,"REV_AT_EPOCH":6375,"BSTAR":0.00086930504,"MEAN_MOTION_DOT":0.00025486,"MEAN_MOTION_DDOT":0}]
